STARLINK-35514          
1 66535U 25265V   25337.50003471 -.00028850  00000+0 -18532-3 0  9991
2 66535  42.9998 108.7453 0001472 270.9830 145.9454 15.75041657  3511
STARLINK-35640          
1 66536U 25265W   25337.50003471  .00003109  00000+0  23349-4 0  9993
2 66536  42.9998 108.7411 0001513 277.0391 141.8063 15.75030338  3494
STARLINK-35582          
1 66537U 25265X   25337.50003471 -.00009963  00000+0 -61849-4 0  9997
2 66537  43.0000 108.7360 0001476 273.6862 147.0807 15.75030441  3519
STARLINK-35577          
1 66538U 25265Y   25337.50003471 -.00035640  00000+0 -22980-3 0  9991
2 66538  42.9999 108.7309 0001476 267.5102 155.1679 15.75047233  3511
STARLINK-35697          
1 66539U 25265Z   25337.50003471 -.00082635  00000+0 -53939-3 0  9996
2 66539  43.0000 108.7258 0001540 265.0757 159.5147 15.75069469  3514
STARLINK-35818          
1 66540U 25265AA  25337.50003471 -.00094388  00000+0 -61719-3 0  9991
2 66540  42.9997 108.7214 0001571 256.1828 170.3272 15.75077127  3515
STARLINK-35796          
1 66541U 25265AB  25337.50003471 -.00095137  00000+0 -62217-3 0  9999
2 66541  42.9999 108.7166 0001630 250.2478 178.1750 15.75077106  3510
STARLINK-35833          
1 66542U 25265AC  25337.50003471 -.00074203  00000+0 -48360-3 0  9994
2 66542  42.9999 108.7122 0001502 277.2170 153.1242 15.75067121  3514
STARLINK-35315          
1 66543U 25265AD  25337.50003471 -.00035100  00000+0 -22623-3 0  9992
2 66543  42.9998 108.7066 0001410 267.4988 164.7647 15.75049739  3407
STARLINK-35728          
1 66544U 25265AE  25337.50003471 -.00072660  00000+0 -47339-3 0  9996
2 66544  42.9997 108.7021 0001621 262.5046 171.6704 15.75066647  3513
SHIJIAN-30A             
1 66545U 25266A   25337.45891345  .00016072  00000+0  85471-3 0  9999
2 66545  51.7998  16.3362 0012785 323.4330  36.5773 15.15338051  2172
SHIJIAN-30B             
1 66546U 25266B   25337.45990176  .00018255  00000+0  96720-3 0  9996
2 66546  51.7981  16.3407 0010449 326.4211  33.6102 15.15399909  2174
