CCSDS_OMM_VERS = 2.0
CREATION_DATE  = 
ORIGINATOR     = 

OBJECT_NAME    = STARLINK-35514
OBJECT_ID      = 2025-265V
CENTER_NAME    = EARTH
REF_FRAME      = TEME
TIME_SYSTEM    = UTC
MEAN_ELEMENT_THEORY = SGP/SGP4

EPOCH          = 2025-12-03T12:00:02.998944
MEAN_MOTION    = 15.75041657
ECCENTRICITY   = .0001472
INCLINATION    = 42.9998
RA_OF_ASC_NODE = 108.7453
ARG_OF_PERICENTER = 270.9830
MEAN_ANOMALY   = 145.9454

EPHEMERIS_TYPE = 0
CLASSIFICATION_TYPE = U
NORAD_CAT_ID   = 66535
ELEMENT_SET_NO = 999
REV_AT_EPOCH   = 351
BSTAR          = -.18532E-3
MEAN_MOTION_DOT = -.2885E-3
MEAN_MOTION_DDOT = 0

CCSDS_OMM_VERS = 2.0
CREATION_DATE  = 
ORIGINATOR     = 

OBJECT_NAME    = STARLINK-35640
OBJECT_ID      = 2025-265W
CENTER_NAME    = EARTH
REF_FRAME      = TEME
TIME_SYSTEM    = UTC
MEAN_ELEMENT_THEORY = SGP/SGP4

EPOCH          = 2025-12-03T12:00:02.998944
MEAN_MOTION    = 15.75030338
ECCENTRICITY   = .0001513
INCLINATION    = 42.9998
RA_OF_ASC_NODE = 108.7411
ARG_OF_PERICENTER = 277.0391
MEAN_ANOMALY   = 141.8063

EPHEMERIS_TYPE = 0
CLASSIFICATION_TYPE = U
NORAD_CAT_ID   = 66536
ELEMENT_SET_NO = 999
REV_AT_EPOCH   = 349
BSTAR          = .23349E-4
MEAN_MOTION_DOT = .3109E-4
MEAN_MOTION_DDOT = 0

CCSDS_OMM_VERS = 2.0
CREATION_DATE  = 
ORIGINATOR     = 

OBJECT_NAME    = STARLINK-35582
OBJECT_ID      = 2025-265X
CENTER_NAME    = EARTH
REF_FRAME      = TEME
TIME_SYSTEM    = UTC
MEAN_ELEMENT_THEORY = SGP/SGP4

EPOCH          = 2025-12-03T12:00:02.998944
MEAN_MOTION    = 15.75030441
ECCENTRICITY   = .0001476
INCLINATION    = 43.0000
RA_OF_ASC_NODE = 108.7360
ARG_OF_PERICENTER = 273.6862
MEAN_ANOMALY   = 147.0807

EPHEMERIS_TYPE = 0
CLASSIFICATION_TYPE = U
NORAD_CAT_ID   = 66537
ELEMENT_SET_NO = 999
REV_AT_EPOCH   = 351
BSTAR          = -.61849E-4
MEAN_MOTION_DOT = -.9963E-4
MEAN_MOTION_DDOT = 0

CCSDS_OMM_VERS = 2.0
CREATION_DATE  = 
ORIGINATOR     = 

OBJECT_NAME    = STARLINK-35577
OBJECT_ID      = 2025-265Y
CENTER_NAME    = EARTH
REF_FRAME      = TEME
TIME_SYSTEM    = UTC
MEAN_ELEMENT_THEORY = SGP/SGP4

EPOCH          = 2025-12-03T12:00:02.998944
MEAN_MOTION    = 15.75047233
ECCENTRICITY   = .0001476
INCLINATION    = 42.9999
RA_OF_ASC_NODE = 108.7309
ARG_OF_PERICENTER = 267.5102
MEAN_ANOMALY   = 155.1679

EPHEMERIS_TYPE = 0
CLASSIFICATION_TYPE = U
NORAD_CAT_ID   = 66538
ELEMENT_SET_NO = 999
REV_AT_EPOCH   = 351
BSTAR          = -.2298E-3
MEAN_MOTION_DOT = -.3564E-3
MEAN_MOTION_DDOT = 0

CCSDS_OMM_VERS = 2.0
CREATION_DATE  = 
ORIGINATOR     = 

OBJECT_NAME    = STARLINK-35697
OBJECT_ID      = 2025-265Z
CENTER_NAME    = EARTH
REF_FRAME      = TEME
TIME_SYSTEM    = UTC
MEAN_ELEMENT_THEORY = SGP/SGP4

EPOCH          = 2025-12-03T12:00:02.998944
MEAN_MOTION    = 15.75069469
ECCENTRICITY   = .000154
INCLINATION    = 43.0000
RA_OF_ASC_NODE = 108.7258
ARG_OF_PERICENTER = 265.0757
MEAN_ANOMALY   = 159.5147

EPHEMERIS_TYPE = 0
CLASSIFICATION_TYPE = U
NORAD_CAT_ID   = 66539
ELEMENT_SET_NO = 999
REV_AT_EPOCH   = 351
BSTAR          = -.53939E-3
MEAN_MOTION_DOT = -.82635E-3
MEAN_MOTION_DDOT = 0

CCSDS_OMM_VERS = 2.0
CREATION_DATE  = 
ORIGINATOR     = 

OBJECT_NAME    = STARLINK-35818
OBJECT_ID      = 2025-265AA
CENTER_NAME    = EARTH
REF_FRAME      = TEME
TIME_SYSTEM    = UTC
MEAN_ELEMENT_THEORY = SGP/SGP4

EPOCH          = 2025-12-03T12:00:02.998944
MEAN_MOTION    = 15.75077127
ECCENTRICITY   = .0001571
INCLINATION    = 42.9997
RA_OF_ASC_NODE = 108.7214
ARG_OF_PERICENTER = 256.1828
MEAN_ANOMALY   = 170.3272

EPHEMERIS_TYPE = 0
CLASSIFICATION_TYPE = U
NORAD_CAT_ID   = 66540
ELEMENT_SET_NO = 999
REV_AT_EPOCH   = 351
BSTAR          = -.61719E-3
MEAN_MOTION_DOT = -.94388E-3
MEAN_MOTION_DDOT = 0

CCSDS_OMM_VERS = 2.0
CREATION_DATE  = 
ORIGINATOR     = 

OBJECT_NAME    = STARLINK-35796
OBJECT_ID      = 2025-265AB
CENTER_NAME    = EARTH
REF_FRAME      = TEME
TIME_SYSTEM    = UTC
MEAN_ELEMENT_THEORY = SGP/SGP4

EPOCH          = 2025-12-03T12:00:02.998944
MEAN_MOTION    = 15.75077106
ECCENTRICITY   = .000163
INCLINATION    = 42.9999
RA_OF_ASC_NODE = 108.7166
ARG_OF_PERICENTER = 250.2478
MEAN_ANOMALY   = 178.1750

EPHEMERIS_TYPE = 0
CLASSIFICATION_TYPE = U
NORAD_CAT_ID   = 66541
ELEMENT_SET_NO = 999
REV_AT_EPOCH   = 351
BSTAR          = -.62217E-3
MEAN_MOTION_DOT = -.95137E-3
MEAN_MOTION_DDOT = 0

CCSDS_OMM_VERS = 2.0
CREATION_DATE  = 
ORIGINATOR     = 

OBJECT_NAME    = STARLINK-35833
OBJECT_ID      = 2025-265AC
CENTER_NAME    = EARTH
REF_FRAME      = TEME
TIME_SYSTEM    = UTC
MEAN_ELEMENT_THEORY = SGP/SGP4

EPOCH          = 2025-12-03T12:00:02.998944
MEAN_MOTION    = 15.75067121
ECCENTRICITY   = .0001502
INCLINATION    = 42.9999
RA_OF_ASC_NODE = 108.7122
ARG_OF_PERICENTER = 277.2170
MEAN_ANOMALY   = 153.1242

EPHEMERIS_TYPE = 0
CLASSIFICATION_TYPE = U
NORAD_CAT_ID   = 66542
ELEMENT_SET_NO = 999
REV_AT_EPOCH   = 351
BSTAR          = -.4836E-3
MEAN_MOTION_DOT = -.74203E-3
MEAN_MOTION_DDOT = 0

CCSDS_OMM_VERS = 2.0
CREATION_DATE  = 
ORIGINATOR     = 

OBJECT_NAME    = STARLINK-35315
OBJECT_ID      = 2025-265AD
CENTER_NAME    = EARTH
REF_FRAME      = TEME
TIME_SYSTEM    = UTC
MEAN_ELEMENT_THEORY = SGP/SGP4

EPOCH          = 2025-12-03T12:00:02.998944
MEAN_MOTION    = 15.75049739
ECCENTRICITY   = .000141
INCLINATION    = 42.9998
RA_OF_ASC_NODE = 108.7066
ARG_OF_PERICENTER = 267.4988
MEAN_ANOMALY   = 164.7647

EPHEMERIS_TYPE = 0
CLASSIFICATION_TYPE = U
NORAD_CAT_ID   = 66543
ELEMENT_SET_NO = 999
REV_AT_EPOCH   = 340
BSTAR          = -.22623E-3
MEAN_MOTION_DOT = -.351E-3
MEAN_MOTION_DDOT = 0

CCSDS_OMM_VERS = 2.0
CREATION_DATE  = 
ORIGINATOR     = 

OBJECT_NAME    = STARLINK-35728
OBJECT_ID      = 2025-265AE
CENTER_NAME    = EARTH
REF_FRAME      = TEME
TIME_SYSTEM    = UTC
MEAN_ELEMENT_THEORY = SGP/SGP4

EPOCH          = 2025-12-03T12:00:02.998944
MEAN_MOTION    = 15.75066647
ECCENTRICITY   = .0001621
INCLINATION    = 42.9997
RA_OF_ASC_NODE = 108.7021
ARG_OF_PERICENTER = 262.5046
MEAN_ANOMALY   = 171.6704

EPHEMERIS_TYPE = 0
CLASSIFICATION_TYPE = U
NORAD_CAT_ID   = 66544
ELEMENT_SET_NO = 999
REV_AT_EPOCH   = 351
BSTAR          = -.47339E-3
MEAN_MOTION_DOT = -.7266E-3
MEAN_MOTION_DDOT = 0

CCSDS_OMM_VERS = 2.0
CREATION_DATE  = 
ORIGINATOR     = 

OBJECT_NAME    = SHIJIAN-30A
OBJECT_ID      = 2025-266A
CENTER_NAME    = EARTH
REF_FRAME      = TEME
TIME_SYSTEM    = UTC
MEAN_ELEMENT_THEORY = SGP/SGP4

EPOCH          = 2025-12-03T11:00:50.122080
MEAN_MOTION    = 15.15338051
ECCENTRICITY   = .0012785
INCLINATION    = 51.7998
RA_OF_ASC_NODE = 16.3362
ARG_OF_PERICENTER = 323.4330
MEAN_ANOMALY   = 36.5773

EPHEMERIS_TYPE = 0
CLASSIFICATION_TYPE = U
NORAD_CAT_ID   = 66545
ELEMENT_SET_NO = 999
REV_AT_EPOCH   = 217
BSTAR          = .85471E-3
MEAN_MOTION_DOT = .16072E-3
MEAN_MOTION_DDOT = 0

CCSDS_OMM_VERS = 2.0
CREATION_DATE  = 
ORIGINATOR     = 

OBJECT_NAME    = SHIJIAN-30B
OBJECT_ID      = 2025-266B
CENTER_NAME    = EARTH
REF_FRAME      = TEME
TIME_SYSTEM    = UTC
MEAN_ELEMENT_THEORY = SGP/SGP4

EPOCH          = 2025-12-03T11:02:15.512064
MEAN_MOTION    = 15.15399909
ECCENTRICITY   = .0010449
INCLINATION    = 51.7981
RA_OF_ASC_NODE = 16.3407
ARG_OF_PERICENTER = 326.4211
MEAN_ANOMALY   = 33.6102

EPHEMERIS_TYPE = 0
CLASSIFICATION_TYPE = U
NORAD_CAT_ID   = 66546
ELEMENT_SET_NO = 999
REV_AT_EPOCH   = 217
BSTAR          = .9672E-3
MEAN_MOTION_DOT = .18255E-3
MEAN_MOTION_DDOT = 0

